{
  "type": "FeatureCollection",
  "features": [
    {
      "type": "Feature",
      "properties": {
        "norad_id": 66718,
        "name": "FLOCK 4H-15",
        "group": "last-30-days",
        "lat": 81.983601356233,
        "lon": -39.54270192257689,
        "alt_km": 508.9808053223305,
        "timestamp": "2025-12-26T19:22:37.605181+00:00",
        "meta_object_name": "FLOCK 4H-15",
        "meta_object_id": "2025-276BE",
        "meta_epoch": "2025-12-26T14:13:11.573184",
        "meta_mean_motion": 15.17147033,
        "meta_eccentricity": 0.00031307,
        "meta_inclination": 97.4416,
        "meta_ra_of_asc_node": 72.106,
        "meta_arg_of_pericenter": 249.7582,
        "meta_mean_anomaly": 110.3316,
        "meta_ephemeris_type": 0,
        "meta_classification_type": "U",
        "meta_norad_cat_id": 66718,
        "meta_element_set_no": 999,
        "meta_rev_at_epoch": 422,
        "meta_bstar": 0.00033195315,
        "meta_mean_motion_dot": 6.522e-05,
        "meta_mean_motion_ddot": 0,
        "tle_line1": "1 66718U 25276BE  25360.59249506  .00006522  00000+0  33195-3 0  9994",
        "tle_line2": "2 66718  97.4416  72.1060 0003130 249.7582 110.3316 15.17147033  4226"
      },
      "geometry": {
        "type": "Point",
        "coordinates": [
          -39.54270192257689,
          81.983601356233
        ]
      }
    },
    {
      "type": "Feature",
      "properties": {
        "norad_id": 66719,
        "name": "FLOCK 4H-16",
        "group": "last-30-days",
        "lat": 74.35961476649976,
        "lon": -79.83604168182156,
        "alt_km": 508.43801599122617,
        "timestamp": "2025-12-26T19:22:37.605193+00:00",
        "meta_object_name": "FLOCK 4H-16",
        "meta_object_id": "2025-276BF",
        "meta_epoch": "2025-12-26T14:00:04.000032",
        "meta_mean_motion": 15.17223106,
        "meta_eccentricity": 0.00033885,
        "meta_inclination": 97.443,
        "meta_ra_of_asc_node": 72.107,
        "meta_arg_of_pericenter": 230.9286,
        "meta_mean_anomaly": 90.1434,
        "meta_ephemeris_type": 0,
        "meta_classification_type": "U",
        "meta_norad_cat_id": 66719,
        "meta_element_set_no": 999,
        "meta_rev_at_epoch": 364,
        "meta_bstar": 0.0042662437,
        "meta_mean_motion_dot": 0.00085711,
        "meta_mean_motion_ddot": 0,
        "tle_line1": "1 66719U 25276BF  25360.58337963  .00085711  00000+0  42662-2 0  9994",
        "tle_line2": "2 66719  97.4430  72.1070 0003388 230.9286  90.1434 15.17223106  3649"
      },
      "geometry": {
        "type": "Point",
        "coordinates": [
          -79.83604168182156,
          74.35961476649976
        ]
      }
    },
    {
      "type": "Feature",
      "properties": {
        "norad_id": 66720,
        "name": "FLOCK 4H-17",
        "group": "last-30-days",
        "lat": -5.709488666287072,
        "lon": -108.38375776574705,
        "alt_km": 514.0951590239656,
        "timestamp": "2025-12-26T19:22:37.605203+00:00",
        "meta_object_name": "FLOCK 4H-17",
        "meta_object_id": "2025-276BG",
        "meta_epoch": "2025-12-26T12:13:59.234304",
        "meta_mean_motion": 15.1787966,
        "meta_eccentricity": 0.00035328,
        "meta_inclination": 97.4433,
        "meta_ra_of_asc_node": 72.0725,
        "meta_arg_of_pericenter": 161.2832,
        "meta_mean_anomaly": 198.8533,
        "meta_ephemeris_type": 0,
        "meta_classification_type": "U",
        "meta_norad_cat_id": 66720,
        "meta_element_set_no": 999,
        "meta_rev_at_epoch": 421,
        "meta_bstar": -0.0064614832,
        "meta_mean_motion_dot": -0.00128635,
        "meta_mean_motion_ddot": 0,
        "tle_line1": "1 66720U 25276BG  25360.50971336 -.00128635  00000+0 -64615-2 0  9993",
        "tle_line2": "2 66720  97.4433  72.0725 0003532 161.2832 198.8533 15.17879660  4216"
      },
      "geometry": {
        "type": "Point",
        "coordinates": [
          -108.38375776574705,
          -5.709488666287072
        ]
      }
    },
    {
      "type": "Feature",
      "properties": {
        "norad_id": 66721,
        "name": "FLOCK 4H-18",
        "group": "last-30-days",
        "lat": 80.15925546957624,
        "lon": -58.838937673491714,
        "alt_km": 508.63080320003155,
        "timestamp": "2025-12-26T19:22:37.605214+00:00",
        "meta_object_name": "FLOCK 4H-18",
        "meta_object_id": "2025-276BH",
        "meta_epoch": "2025-12-26T14:12:17.288928",
        "meta_mean_motion": 15.17185823,
        "meta_eccentricity": 0.00024957,
        "meta_inclination": 97.4375,
        "meta_ra_of_asc_node": 72.0903,
        "meta_arg_of_pericenter": 264.1002,
        "meta_mean_anomaly": 95.9947,
        "meta_ephemeris_type": 0,
        "meta_classification_type": "U",
        "meta_norad_cat_id": 66721,
        "meta_element_set_no": 999,
        "meta_rev_at_epoch": 422,
        "meta_bstar": 0.00051149938,
        "meta_mean_motion_dot": 0.00010101,
        "meta_mean_motion_ddot": 0,
        "tle_line1": "1 66721U 25276BH  25360.59186677  .00010101  00000+0  51150-3 0  9996",
        "tle_line2": "2 66721  97.4375  72.0903 0002495 264.1002  95.9947 15.17185823  4227"
      },
      "geometry": {
        "type": "Point",
        "coordinates": [
          -58.838937673491714,
          80.15925546957624
        ]
      }
    },
    {
      "type": "Feature",
      "properties": {
        "norad_id": 66722,
        "name": "FLOCK 4H-19",
        "group": "last-30-days",
        "lat": -24.39163421518224,
        "lon": -111.04670260558551,
        "alt_km": 515.5420026562851,
        "timestamp": "2025-12-26T19:22:37.605223+00:00",
        "meta_object_name": "FLOCK 4H-19",
        "meta_object_id": "2025-276BJ",
        "meta_epoch": "2025-12-26T13:44:03.737472",
        "meta_mean_motion": 15.18346822,
        "meta_eccentricity": 0.00025842,
        "meta_inclination": 97.4379,
        "meta_ra_of_asc_node": 72.1182,
        "meta_arg_of_pericenter": 145.7552,
        "meta_mean_anomaly": 214.3849,
        "meta_ephemeris_type": 0,
        "meta_classification_type": "U",
        "meta_norad_cat_id": 66722,
        "meta_element_set_no": 999,
        "meta_rev_at_epoch": 351,
        "meta_bstar": 0.00082529674,
        "meta_mean_motion_dot": 0.00016908,
        "meta_mean_motion_ddot": 0,
        "tle_line1": "1 66722U 25276BJ  25360.57226548  .00016908  00000+0  82530-3 0  9994",
        "tle_line2": "2 66722  97.4379  72.1182 0002584 145.7552 214.3849 15.18346822  3513"
      },
      "geometry": {
        "type": "Point",
        "coordinates": [
          -111.04670260558551,
          -24.39163421518224
        ]
      }
    },
    {
      "type": "Feature",
      "properties": {
        "norad_id": 66723,
        "name": "FLOCK 4H-20",
        "group": "last-30-days",
        "lat": -28.382128469416628,
        "lon": -111.68291588012599,
        "alt_km": 515.2965252819513,
        "timestamp": "2025-12-26T19:22:37.605234+00:00",
        "meta_object_name": "FLOCK 4H-20",
        "meta_object_id": "2025-276BK",
        "meta_epoch": "2025-12-26T13:43:00.103872",
        "meta_mean_motion": 15.18367365,
        "meta_eccentricity": 0.00030885,
        "meta_inclination": 97.4415,
        "meta_ra_of_asc_node": 72.1346,
        "meta_arg_of_pericenter": 159.8966,
        "meta_mean_anomaly": 200.239,
        "meta_ephemeris_type": 0,
        "meta_classification_type": "U",
        "meta_norad_cat_id": 66723,
        "meta_element_set_no": 999,
        "meta_rev_at_epoch": 347,
        "meta_bstar": 0.00056888821,
        "meta_mean_motion_dot": 0.00011633,
        "meta_mean_motion_ddot": 0,
        "tle_line1": "1 66723U 25276BK  25360.57152898  .00011633  00000+0  56889-3 0  9999",
        "tle_line2": "2 66723  97.4415  72.1346 0003088 159.8966 200.2390 15.18367365  3477"
      },
      "geometry": {
        "type": "Point",
        "coordinates": [
          -111.68291588012599,
          -28.382128469416628
        ]
      }
    },
    {
      "type": "Feature",
      "properties": {
        "norad_id": 66724,
        "name": "FLOCK 4H-21",
        "group": "last-30-days",
        "lat": -31.868862122029558,
        "lon": -112.30614481258598,
        "alt_km": 515.7784287770364,
        "timestamp": "2025-12-26T19:22:37.605244+00:00",
        "meta_object_name": "FLOCK 4H-21",
        "meta_object_id": "2025-276BL",
        "meta_epoch": "2025-12-26T10:32:15.855360",
        "meta_mean_motion": 15.18368984,
        "meta_eccentricity": 0.00020714,
        "meta_inclination": 97.4381,
        "meta_ra_of_asc_node": 71.9904,
        "meta_arg_of_pericenter": 178.7991,
        "meta_mean_anomaly": 181.3249,
        "meta_ephemeris_type": 0,
        "meta_classification_type": "U",
        "meta_norad_cat_id": 66724,
        "meta_element_set_no": 999,
        "meta_rev_at_epoch": 345,
        "meta_bstar": -0.00073348263,
        "meta_mean_motion_dot": -0.00015096,
        "meta_mean_motion_ddot": 0,
        "tle_line1": "1 66724U 25276BL  25360.43907240 -.00015096  00000+0 -73348-3 0  9992",
        "tle_line2": "2 66724  97.4381  71.9904 0002071 178.7991 181.3249 15.18368984  3454"
      },
      "geometry": {
        "type": "Point",
        "coordinates": [
          -112.30614481258598,
          -31.868862122029558
        ]
      }
    }
  ]
}